[
   {
      "state": "Andaman and Nicobar",
      "stateHi": "अण्डमान और निकोबार",
      "districts": [
        {
          "name": "Nicobar",
          "nameHi": "निकोबार"
        },
        {
          "name": "North And Middle Andaman",
          "nameHi": "उत्तर और मध्य अंडमान"
        },
        {
          "name": "South Andaman",
          "nameHi": "दक्षिण अंडमान"
        }
      ]
   },
   {
      "state": "Andhra Pradesh",
      "stateHi": "आंध्र प्रदेश",
      "districts": [
        {
          "name": "Anantpur",
          "nameHi": "अनंतपुर"
        },
        {
          "name": "Chittoor",
          "nameHi": "चित्तूर"
        },
        {
          "name": "East Godavari",
          "nameHi": "पूर्वी गोदावरी"
        },
        {
          "name": "Guntur",
          "nameHi": "गुंटूर"
        },
        {
          "name": "Krishna",
          "nameHi": "कृष्णा"
        },
        {
          "name": "Kurnool",
          "nameHi": "कुरनूल"
        },
        {
          "name": "Nellore",
          "nameHi": "नेल्लोर"
        },
        {
          "name": "Prakasam",
          "nameHi": "चमक"
        },
        {
          "name": "Srikakulam",
          "nameHi": "श्रीकाकुलम"
        },
        {
          "name": "Visakhapatnam",
          "nameHi": "विशाखापत्तनम"
        },
        {
          "name": "Vizianagaram",
          "nameHi": "विजयनगरम"
        },
        {
          "name": "West Godavari",
          "nameHi": "पश्चिम गोदावरी"
        },
        {
          "name": "Kadapa",
          "nameHi": "विसार कडपा"
        }
      ]
    },    
    {
      "state": "Arunachal Pradesh",
      "stateHi": "अरुणाचल प्रदेश",
      "districts": [
        {
          "name": "Tawang",
          "nameHi": "तवांग"
        },
        {
          "name": "West Kameng",
          "nameHi": "पश्चिम सदस्यता"
        },
        {
          "name": "East Kameng",
          "nameHi": "पूर्व सदस्यता"
        },
        {
          "name": "Papumpare",
          "nameHi": "पापुम पारे"
        },
        {
          "name": "Kurung Kumey",
          "nameHi": "अपर्याप्त कुमेय"
        },
        {
          "name": "Kra Daadi",
          "nameHi": "क्र दादी"
        },
        {
          "name": "Lower Subansiri",
          "nameHi": "निचला सुबनसिरी"
        },
        {
          "name": "Upper Subansiri",
          "nameHi": "ऊपरी सुबनसिरी"
        },
        {
          "name": "West Siang",
          "nameHi": "पश्चिम सियांग"
        },
        {
          "name": "East Siang",
          "nameHi": "पूर्वी सियांग"
        },
        {
          "name": "Siang",
          "nameHi": "सियांग"
        },
        {
          "name": "Upper Siang",
          "nameHi": "ऊपरी सियांग"
        },
        {
          "name": "Lower Siang",
          "nameHi": "निचला सियांग"
        },
        {
          "name": "Lower Dibang Valley",
          "nameHi": "निचली दिबांग घाटी"
        },
        {
          "name": "Dibang Valley",
          "nameHi": "दिबांग घाटी"
        },
        {
          "name": "Anjaw",
          "nameHi": "अंजाव"
        },
        {
          "name": "Lohit",
          "nameHi": "लोहित"
        },
        {
          "name": "Namsai",
          "nameHi": "नामसाई"
        },
        {
          "name": "Changlang",
          "nameHi": "चांगलांग"
        },
        {
          "name": "Tirap",
          "nameHi": "तिरप"
        },
        {
          "name": "Longding",
          "nameHi": "लोंगडिंग"
        }
      ]
    },    
    {
      "state": "Assam",
      "stateHi": "असम",
      "districts": [
        {
          "name": "Baksa",
          "nameHi": "बक्सा"
        },
        {
          "name": "Barpeta",
          "nameHi": "बारपेटा"
        },
        {
          "name": "Bongaigaon",
          "nameHi": "बोंगईगांव"
        },
        {
          "name": "Cachar",
          "nameHi": "कछार"
        },
        {
          "name": "Chirang",
          "nameHi": "चिरांग"
        },
        {
          "name": "Darrang",
          "nameHi": "दरांग"
        },
        {
          "name": "Dhemaji",
          "nameHi": "धेमाजी"
        },
        {
          "name": "Dhubri",
          "nameHi": "धुबरी"
        },
        {
          "name": "Dibrugarh",
          "nameHi": "डिब्रूगढ़"
        },
        {
          "name": "Goalpara",
          "nameHi": "गोलपाड़ा"
        },
        {
          "name": "Golaghat",
          "nameHi": "गोलाघाट"
        },
        {
          "name": "Hailakandi",
          "nameHi": "हैलाकांडी"
        },
        {
          "name": "Jorhat",
          "nameHi": "जोरहाट"
        },
        {
          "name": "Kamrup Metropolitan",
          "nameHi": "कामरूप महानगर"
        },
        {
          "name": "Kamrup",
          "nameHi": "कामरूप"
        },
        {
          "name": "Karbi Anglong",
          "nameHi": "कार्बी आंगलोंग"
        },
        {
          "name": "Karimganj",
          "nameHi": "करीमगंज"
        },
        {
          "name": "Kokrajhar",
          "nameHi": "कोकराझार"
        },
        {
          "name": "Lakhimpur",
          "nameHi": "लखीसराय"
        },
        {
          "name": "Marigaon",
          "nameHi": "मोरीगांव"
        },
        {
          "name": "Nagaon",
          "nameHi": "नगांव"
        },
        {
          "name": "Nalbari",
          "nameHi": "नलबाड़ी"
        },
        {
          "name": "Sibasagar",
          "nameHi": "शिवसागर"
        },
        {
          "name": "Sonitpur",
          "nameHi": "सोनितपुर"
        },
        {
          "name": "Tinsukia",
          "nameHi": "तिनसुकिया"
        },
        {
          "name": "Udalguri",
          "nameHi": "उदलगुड़ी"
        }
      ]
    },    
    {
      "state": "Bihar",
      "stateHi": "बिहार",
      "districts": [
        {
          "name": "Araria",
          "nameHi": "अररिया"
        },
        {
          "name": "Arwal",
          "nameHi": "अरवल"
        },
        {
          "name": "Aurangabad",
          "nameHi": "औरंगाबाद"
        },
        {
          "name": "Banka",
          "nameHi": "बांका"
        },
        {
          "name": "Begusarai",
          "nameHi": "बेगूसराय"
        },
        {
          "name": "Bhagalpur",
          "nameHi": "भागलपुर"
        },
        {
          "name": "Bhojpur",
          "nameHi": "भोजपुर"
        },
        {
          "name": "Buxar",
          "nameHi": "बक्सर"
        },
        {
          "name": "Darbhanga",
          "nameHi": "दरभंगा"
        },
        {
          "name": "East Champaran",
          "nameHi": "पूर्वी चंपारण (मोतिहारी)"
        },
        {
          "name": "Gaya",
          "nameHi": "गया"
        },
        {
          "name": "Gopalganj",
          "nameHi": "गोपालगंज"
        },
        {
          "name": "Jamui",
          "nameHi": "जमुई"
        },
        {
          "name": "Jehanabad",
          "nameHi": "जहानाबाद"
        },
        {
          "name": "Kaimur",
          "nameHi": "कैमूर (भभुआ)"
        },
        {
          "name": "Katihar",
          "nameHi": "कटिहार"
        },
        {
          "name": "Khagaria",
          "nameHi": "खगरिया"
        },
        {
          "name": "Kishanganj",
          "nameHi": "किशनगंज"
        },
        {
          "name": "Lakhisarai",
          "nameHi": "लखीसराय"
        },
        {
          "name": "Madhepura",
          "nameHi": "मधेपुरा"
        },
        {
          "name": "Madhubani",
          "nameHi": "मधुबनी"
        },
        {
          "name": "Monghyr",
          "nameHi": "मुंगेर (मोंगहिर)"
        },
        {
          "name": "Muzzaffarpur",
          "nameHi": "मुजफ्फरपुर"
        },
        {
          "name": "Nalanda",
          "nameHi": "नालन्दा"
        },
        {
          "name": "Nawada",
          "nameHi": "नवादा"
        },
        {
          "name": "Patna",
          "nameHi": "पटना"
        },
        {
          "name": "Purnea",
          "nameHi": "पूर्णिया (पूर्णिया)"
        },
        {
          "name": "Rohtas",
          "nameHi": "रोहतास"
        },
        {
          "name": "Saharsa",
          "nameHi": "सहरसा"
        },
        {
          "name": "Samastipur",
          "nameHi": "समस्तीपुर"
        },
        {
          "name": "Saran",
          "nameHi": "सारण"
        },
        {
          "name": "Sheikhpura",
          "nameHi": "शेखपुरा"
        },
        {
          "name": "Sheohar",
          "nameHi": "शिवहर"
        },
        {
          "name": "Sitamarhi",
          "nameHi": "सीतामढ़ी"
        },
        {
          "name": "Siwan",
          "nameHi": "सिवान"
        },
        {
          "name": "Supaul",
          "nameHi": "सुपौल"
        },
        {
          "name": "Vaishali",
          "nameHi": "वैशाली"
        },
        {
          "name": "West Champaran",
          "nameHi": "पश्चिमी चंपारण"
        }
      ]
    },    
    {
      "state": "Chandigarh (UT)",
      "stateHi": "चंडीगढ़ (UT)",
      "districts": [
        {
          "name": "Chandigarh",
          "nameHi": "चंडीगढ़"
        }
      ]
    },    
    {
      "state": "Chhattisgarh",
      "stateHi": "छत्तीसगढ़",
      "districts": [
        {
          "name": "Balod",
          "nameHi": "बालोद"
        },
        {
          "name": "Baloda Bazar",
          "nameHi": "बलौदाबाजार"
        },
        {
          "name": "Balrampur",
          "nameHi": "बलरामपुर"
        },
        {
          "name": "Bastar",
          "nameHi": "बस्तर"
        },
        {
          "name": "Bemetara",
          "nameHi": "बेमेतरा"
        },
        {
          "name": "Bijapur",
          "nameHi": "बीजापुर"
        },
        {
          "name": "Bilaspur",
          "nameHi": "बिलासपुर"
        },
        {
          "name": "Dakshin Bastar Dantewada",
          "nameHi": "दक्षिण बस्तर दंतेवाड़ा"
        },
        {
          "name": "Dhamtari",
          "nameHi": "धमतरी"
        },
        {
          "name": "Durg",
          "nameHi": "दुर्ग"
        },
        {
          "name": "Gariyaband",
          "nameHi": "गरियाबंद"
        },
        {
          "name": "Janjgir",
          "nameHi": "जांजगीर-चंपा"
        },
        {
          "name": "Jashpur",
          "nameHi": "जशपुर"
        },
        {
          "name": "Kabeerdham",
          "nameHi": "कवर्धाम"
        },
        {
          "name": "Uttar Bastar Kanker",
          "nameHi": "उत्तर बस्तर कांकेर"
        },
        {
          "name": "Kondagaon",
          "nameHi": "कोंडागांव"
        },
        {
          "name": "Korba",
          "nameHi": "कोरबा"
        },
        {
          "name": "Korea",
          "nameHi": "कोरिया"
        },
        {
          "name": "Mahasamund",
          "nameHi": "महासमुंद"
        },
        {
          "name": "Mungeli",
          "nameHi": "मुंगेली"
        },
        {
          "name": "Narayanpur",
          "nameHi": "नारायणपुर"
        },
        {
          "name": "Raigarh",
          "nameHi": "रायगढ़"
        },
        {
          "name": "Raipur",
          "nameHi": "रायपुर"
        },
        {
          "name": "Rajnandgaon",
          "nameHi": "राजनंदगांव"
        },
        {
          "name": "Sukma",
          "nameHi": "सुकमा"
        },
        {
          "name": "Surajpur",
          "nameHi": "सूरजपुर"
        },
        {
          "name": "Surguja",
          "nameHi": "सरगुजा"
        }
      ]
    },    
    {
      "state": "Dadra and Nagar Haveli (UT)",
      "stateHi": "दादरा और नगर हवेली (UT)",
      "districts": [
        {
          "name": "Dadra And Nagar Haveli",
          "nameHi": "दादरा एवं नगर हवेली"
        }
      ]
    },    
    {
      "state": "Daman and Diu (UT)",
      "stateHi": "दमन और दीव (UT)",
      "districts": [
        {
          "name": "Daman",
          "nameHi": "दमन"
        },
        {
          "name": "Diu",
          "nameHi": "दीव"
        }
      ]
    },
    {
      "state": "Delhi (NCT)",
      "stateHi": "दिल्ली (NCT)",
      "districts": [
        {
          "name": "Central Delhi (Daryaganj)",
          "nameHi": "मध्य दिल्ली"
        },
        {
          "name": "East Delhi (Preet Vihar)",
          "nameHi": "पूर्वी दिल्ली"
        },
        {
          "name": "New Delhi (Connaught Place)",
          "nameHi": "नयी दिल्ली"
        },
        {
          "name": "North Delhi (Narela)",
          "nameHi": "उत्तरी दिल्ली"
        },
        {
          "name": "North East Delhi (Seelampur)",
          "nameHi": "उत्तर पूर्वी दिल्ली"
        },
        {
          "name": "North West Delhi (Kanjhawala)",
          "nameHi": "उत्तर पश्चिम दिल्ली"
        },
        {
          "name": "South Delhi (Saket)",
          "nameHi": "शाहदरा"
        },
        {
          "name": "South East Delhi (Defence Colony)",
          "nameHi": "दक्षिणी दिल्ली"
        },
        {
          "name": "South West Delhi (Dwarka)",
          "nameHi": "दक्षिण पूर्वी दिल्ली"
        },
        {
          "name": "West Delhi (Rajouri Garden)",
          "nameHi": "पश्चिमी दिल्ली"
        }
      ]
    },
    {
      "state": "Goa",
      "stateHi": "गोवा",
      "districts": [
        {
          "name": "Goa North",
          "nameHi": "उत्तरी गोवा"
        },
        {
          "name": "Goa South",
          "nameHi": "दक्षिण गोवा"
        }
      ]
    },
    {
      "state": "Gujarat",
      "stateHi": "गुजरात",
      "districts": [
        {
          "name": "Ahmedabad",
          "nameHi": "अहमदाबाद"
        },
        {
          "name": "Amreli",
          "nameHi": "अमरेली"
        },
        {
          "name": "Anand",
          "nameHi": "आनंद"
        },
        {
          "name": "Aravalli",
          "nameHi": "अरावली"
        },
        {
          "name": "Banas Kantha",
          "nameHi": "बनासकांठा (पालनपुर)"
        },
        {
          "name": "Bharuch",
          "nameHi": "भरूच"
        },
        {
          "name": "Bhavnagar",
          "nameHi": "भावनगर"
        },
        {
          "name": "Botad",
          "nameHi": "बोटाड"
        },
        {
          "name": "Chhota Udaipur",
          "nameHi": "छोटा उदेपुर"
        },
        {
          "name": "Dahod",
          "nameHi": "दाहोद"
        },
        {
          "name": "Dangs",
          "nameHi": "डांग्स (अहवा)"
        },
        {
          "name": "Devbhoomi Dwarka",
          "nameHi": "देवभूमि द्वारका"
        },
        {
          "name": "Gandhinagar",
          "nameHi": "गांधीनगर"
        },
        {
          "name": "Gir Somnath",
          "nameHi": "गिर सोमनाथ"
        },
        {
          "name": "Jamnagar",
          "nameHi": "जामनगर"
        },
        {
          "name": "Junagadh",
          "nameHi": "जूनागढ़"
        },
        {
          "name": "Kachchh",
          "nameHi": "कच्छ"
        },
        {
          "name": "Kheda",
          "nameHi": "खेड़ा (नाडियाड)"
        },
        {
          "name": "Mahisagar",
          "nameHi": "माहीसागर"
        },
        {
          "name": "Mahesana",
          "nameHi": "मेहसाणा"
        },
        {
          "name": "Morbi",
          "nameHi": "मोरबी"
        },
        {
          "name": "Narmada",
          "nameHi": "नर्मदा (राजपीपला)"
        },
        {
          "name": "Navsari",
          "nameHi": "नवसारी"
        },
        {
          "name": "Panch Mahal",
          "nameHi": "पंचमहल (गोधरा)"
        },
        {
          "name": "Patan",
          "nameHi": "पाटन"
        },
        {
          "name": "Porbandar",
          "nameHi": "पोरबंदर"
        },
        {
          "name": "Rajkot",
          "nameHi": "राजकोट"
        },
        {
          "name": "Sabar Kantha",
          "nameHi": "साबरकांठा (हिम्मतनगर)"
        },
        {
          "name": "Surat",
          "nameHi": "सूरत"
        },
        {
          "name": "Surendranagar",
          "nameHi": "सुरेंद्रनगर"
        },
        {
          "name": "Tapi",
          "nameHi": "तापी (व्यारा)"
        },
        {
          "name": "Vadodara",
          "nameHi": "वडोदरा"
        },
        {
          "name": "Valsad",
          "nameHi": "वलसाड"
        }
      ]
    },
    {
      "state": "Haryana",
      "stateHi": "हरियाणा",
      "districts": [
        {
          "name": "Ambala",
          "nameHi": "अंबाला"
        },
        {
          "name": "Bhiwani",
          "nameHi": "भिवानी"
        },
        {
          "name": "Faridabad",
          "nameHi": "फरीदाबाद"
        },
        {
          "name": "Fatehabad",
          "nameHi": "फतेहाबाद"
        },
        {
          "name": "Gurgaon",
          "nameHi": "गुडगाँव"
        },
        {
          "name": "Hisar",
          "nameHi": "हिसार"
        },
        {
          "name": "Jhajjar",
          "nameHi": "झज्जर"
        },
        {
          "name": "Jind",
          "nameHi": "जींद"
        },
        {
          "name": "Kaithal",
          "nameHi": "कैथल"
        },
        {
          "name": "Karnal",
          "nameHi": "करनाल"
        },
        {
          "name": "Kurukshetra",
          "nameHi": "कुरूक्षेत्र"
        },
        {
          "name": "Mahendragarh",
          "nameHi": "महेंद्रगढ़"
        },
        {
          "name": "Mewat",
          "nameHi": "मेवात"
        },
        {
          "name": "Palwal",
          "nameHi": "पलवल"
        },
        {
          "name": "Panchkula",
          "nameHi": "पंचकुला"
        },
        {
          "name": "Panipat",
          "nameHi": "पानीपत"
        },
        {
          "name": "Rewari",
          "nameHi": "रेवाड़ी"
        },
        {
          "name": "Rohtak",
          "nameHi": "रोहतक"
        },
        {
          "name": "Sirsa",
          "nameHi": "सिरसा"
        },
        {
          "name": "Sonipat",
          "nameHi": "सोनीपत"
        },
        {
          "name": "Yamunanagar",
          "nameHi": "यमुनानगर"
        }
      ]
    },
    {
      "state": "Himachal Pradesh",
      "stateHi": "हिमाचल प्रदेश",
      "districts": [
        {
          "name": "Bilaspur",
          "nameHi": "बिलासपुर"
        },
        {
          "name": "Chamba",
          "nameHi": "चम्बा"
        },
        {
          "name": "Hamirpur",
          "nameHi": "हमीरपुर"
        },
        {
          "name": "Kangra",
          "nameHi": "काँगड़ा"
        },
        {
          "name": "Kinnaur",
          "nameHi": "किन्नौर"
        },
        {
          "name": "Kulu",
          "nameHi": "कुल्लू"
        },
        {
          "name": "Lahaul and Spiti",
          "nameHi": "लाहौल स्पीति"
        },
        {
          "name": "Mandi",
          "nameHi": "मंडी"
        },
        {
          "name": "Shimla",
          "nameHi": "शिमला"
        },
        {
          "name": "Sirmaur",
          "nameHi": "सिरमौर (सिरमौर)"
        },
        {
          "name": "Solan",
          "nameHi": "सोलन"
        },
        {
          "name": "Una",
          "nameHi": "उना"
        }
      ]
    },
    {
      "state": "Jammu and Kashmir",
      "stateHi": "जम्मू और कश्मीर",
      "districts": [
        {
          "name": "Anantnag",
          "nameHi": "अनंतनाग"
        },
        {
          "name": "Bandipore",
          "nameHi": "बांदीपुरा"
        },
        {
          "name": "Baramulla",
          "nameHi": "बारामूला"
        },
        {
          "name": "Badgam",
          "nameHi": "बडगाम"
        },
        {
          "name": "Doda",
          "nameHi": "डोडा"
        },
        {
          "name": "Ganderbal",
          "nameHi": "गांदरबल"
        },
        {
          "name": "Jammu",
          "nameHi": "जम्मू"
        },
        {
          "name": "Kargil",
          "nameHi": "कारगिल"
        },
        {
          "name": "Kathua",
          "nameHi": "कठुआ"
        },
        {
          "name": "Kishtwar",
          "nameHi": "किश्तवाड़"
        },
        {
          "name": "Kulgam",
          "nameHi": "कुलगाम"
        },
        {
          "name": "Kupwara",
          "nameHi": "कुपवाड़ा"
        },
        {
          "name": "Ladakh (Leh)",
          "nameHi": "लेह"
        },
        {
          "name": "Punch",
          "nameHi": "पूंछ"
        },
        {
          "name": "Pulwama",
          "nameHi": "पुलवामा"
        },
        {
          "name": "Rajouri",
          "nameHi": "राजौरी"
        },
        {
          "name": "Ramban",
          "nameHi": "रामबन"
        },
        {
          "name": "Reasi",
          "nameHi": "रियासी"
        },
        {
          "name": "Shopian",
          "nameHi": "सांबा"
        },
        {
          "name": "Srinagar",
          "nameHi": "श्रीनगर"
        },
        {
          "name": "Udhampur",
          "nameHi": "उधमपुर"
        }
      ]
    },
    {
      "state": "Jharkhand",
      "stateHi": "झारखंड",
      "districts": [
        {
          "name": "Bokaro",
          "nameHi": "बोकारो"
        },
        {
          "name": "Chatra",
          "nameHi": "चतरा"
        },
        {
          "name": "Deoghar",
          "nameHi": "देवघर"
        },
        {
          "name": "Dhanbad",
          "nameHi": "धनबाद"
        },
        {
          "name": "Dumka",
          "nameHi": "दुमका"
        },
        {
          "name": "East Singhbhum",
          "nameHi": "पूर्वी सिंहभूम"
        },
        {
          "name": "Garhwa",
          "nameHi": "गढ़वा"
        },
        {
          "name": "Giridih",
          "nameHi": "गिरिडीह"
        },
        {
          "name": "Godda",
          "nameHi": "गोड्डा"
        },
        {
          "name": "Gumla",
          "nameHi": "गुमला"
        },
        {
          "name": "Hazaribagh",
          "nameHi": "हज़ारीबाग"
        },
        {
          "name": "Jamtara",
          "nameHi": "जामताड़ा"
        },
        {
          "name": "Khunti",
          "nameHi": "खूंटी"
        },
        {
          "name": "Koderma",
          "nameHi": "कोडरमा"
        },
        {
          "name": "Latehar",
          "nameHi": "लातेहार"
        },
        {
          "name": "Lohardaga",
          "nameHi": "लोहरदगा"
        },
        {
          "name": "Pakur",
          "nameHi": "पाकुर"
        },
        {
          "name": "Palamu",
          "nameHi": "पलामू"
        },
        {
          "name": "Ramgarh",
          "nameHi": "रामगढ़"
        },
        {
          "name": "Ranchi",
          "nameHi": "रांची"
        },
        {
          "name": "Sahibganj",
          "nameHi": "साहिबगंज"
        },
        {
          "name": "Seraikella Kharsawan",
          "nameHi": "सरायकेला-खरसावां"
        },
        {
          "name": "Simdega",
          "nameHi": "सिमडेगा"
        },
        {
          "name": "West Singhbhum",
          "nameHi": "पश्चिमी सिंहभूम"
        }
      ]
    },
    {
      "state": "Karnataka",
      "stateHi": "कर्नाटक",
      "districts": [
         {
            "name": "Bagalkote",
            "nameHi": "बागलकोट"
         },
         {
            "name": "Ballari",
            "nameHi": "बल्लारी (बेल्लारी)"
         },
         {
            "name": "Belagavi",
            "nameHi": "बेलगावी (बेलगाम)"
         },
         {
            "name": "Bengaluru Rural",
            "nameHi": "बेंगलुरु (बैंगलोर) ग्रामीण"
         },
         {
            "name": "Bengaluru Urban",
            "nameHi": "बेंगलुरु (बैंगलोर) शहरी"
         },
         {
            "name": "Bidar",
            "nameHi": "बीदर"
         },
         {
            "name": "Chamarajanagar",
            "nameHi": "चामराजनगर"
         },
         {
            "name": "Chikkaballapur",
            "nameHi": "चिक्बल्लपुर"
         },
         {
            "name": "Chikkamagaluru",
            "nameHi": "चिक्कमगलुरु (चिकमगलूर)"
         },
         {
            "name": "Chitradurga",
            "nameHi": "चित्रदुर्ग"
         },
         {
            "name": "Dakshina Kannada",
            "nameHi": "दक्षिण कन्नड़"
         },
         {
            "name": "Davangere",
            "nameHi": "दावणगेरे"
         },
         {
            "name": "Dharwad",
            "nameHi": "धारवाड़"
         },
         {
            "name": "Gadag",
            "nameHi": "गदग"
         },
         {
            "name": "Hassan",
            "nameHi": "हसन"
         },
         {
            "name": "Haveri",
            "nameHi": "हावेरी"
         },
         {
            "name": "Kalaburgi",
            "nameHi": "कालाबुरागी (गुलबर्गा)"
         },
         {
            "name": "Kodagu",
            "nameHi": "कोडागू"
         },
         {
            "name": "Kolar",
            "nameHi": "कोलार"
         },
         {
            "name": "Koppal",
            "nameHi": "कोप्पल"
         },
         {
            "name": "Mandya",
            "nameHi": "मंड्या"
         },
         {
            "name": "Mysuru",
            "nameHi": "मैसूर (मैसूर)"
         },
         {
            "name": "Raichur",
            "nameHi": "रायचुर"
         },
         {
            "name": "Ramanagara",
            "nameHi": "रामानगर"
         },
         {
            "name": "Shivamogga",
            "nameHi": "शिवमोग्गा (शिमोगा)"
         },
         {
            "name": "Tumakuru",
            "nameHi": "तुमकुरु (तुमकुर)"
         },
         {
            "name": "Udupi",
            "nameHi": "उडुपी"
         },
         {
            "name": "Uttara Kannada",
            "nameHi": "उत्तर कन्नड़ (कारवार)"
         },
         {
            "name": "Vijayapura",
            "nameHi": "विजयपुरा (बीजापुर)"
         },
         {
            "name": "Yadgir",
            "nameHi": "यादगीर"
         }
      ]
   },
   {
      "state": "Kerala",
      "stateHi": "केरल",
      "districts": [
         {
            "name": "Alappuzha",
            "nameHi": "अलपुझा"
         },
         {
            "name": "Ernakulam",
            "nameHi": "एर्नाकुलम"
         },
         {
            "name": "Idukki",
            "nameHi": "इडुक्की"
         },
         {
            "name": "Kannur",
            "nameHi": "कन्नूर"
         },
         {
            "name": "Kasargod",
            "nameHi": "कासरगोड"
         },
         {
            "name": "Kollam",
            "nameHi": "कोल्लम"
         },
         {
            "name": "Kottayam",
            "nameHi": "कोट्टायम"
         },
         {
            "name": "Kozhikode",
            "nameHi": "कोझिकोड"
         },
         {
            "name": "Malappuram",
            "nameHi": "मलप्पुरम"
         },
         {
            "name": "Palakkad",
            "nameHi": "पलक्कड़"
         },
         {
            "name": "Pathanamthitta",
            "nameHi": "पथानामथिट्टा"
         },
         {
            "name": "Thiruvananthapuram",
            "nameHi": "तिरुवनंतपुरम"
         },
         {
            "name": "Thrissur",
            "nameHi": "त्रिशूर"
         },
         {
            "name": "Wayanad",
            "nameHi": "वायनाड"
         }
      ]
   },
   {
      "state": "Lakshadweep (UT)",
      "stateHi": "लक्षद्वीप ( UT )",
      "districts": [
         {
            "name": "Lakshadweep",
            "nameHi": "लक्षद्वीप"
         }
      ]
   },
   {
      "state": "Madhya Pradesh",
      "stateHi": "मध्य प्रदेश",
      "districts": [
         {
            "name": "Agar Malwa",
         "nameHi": "आगर मालवा"
      },
      {
         "name": "Alirajpur",
         "nameHi": "आलीराजपुर"
      },
      {
         "name": "Anuppur",
         "nameHi": "अनुपपुर"
      },
      {
         "name": "Ashoknagar",
         "nameHi": "अशोकनगर"
      },
      {
         "name": "Balaghat",
         "nameHi": "बालाघाट"
      },
      {
         "name": "Barwani",
         "nameHi": "बड़वानी"
      },
      {
         "name": "Betul",
         "nameHi": "बेतुल"
      },
      {
         "name": "Bhind",
         "nameHi": "भिंड"
      },
      {
         "name": "Bhopal",
         "nameHi": "भोपाल"
      },
      {
         "name": "Burhanpur",
         "nameHi": "बुरहानपुर"
      },
      {
         "name": "Chhatarpur",
         "nameHi": "छतरपुर"
      },
      {
         "name": "Chhindwara",
         "nameHi": "छिंदवाड़ा"
      },
      {
         "name": "Damoh",
         "nameHi": "दमोह"
      },
      {
         "name": "Datia",
         "nameHi": "दतिया"
      },
      {
         "name": "Dewas",
         "nameHi": "देवास"
      },
      {
         "name": "Dhar",
         "nameHi": "धार"
      },
      {
         "name": "Dindori",
         "nameHi": "डिंडोरी"
      },
      {
         "name": "Guna",
         "nameHi": "गुना"
      },
      {
         "name": "Gwalior",
         "nameHi": "ग्वालियर"
      },
      {
         "name": "Harda",
         "nameHi": "हरदा"
      },
      {
         "name": "Hoshangabad",
         "nameHi": "होशंगाबाद"
      },
      {
         "name": "Indore",
         "nameHi": "इंदौर"
      },
      {
         "name": "Jabalpur",
         "nameHi": "जबलपुर"
      },
      {
         "name": "Jhabua",
         "nameHi": "झाबुआ"
      },
      {
         "name": "Katni",
         "nameHi": "कटनी"
      },
      {
         "name": "Khandwa",
         "nameHi": "खंडवा"
      },
      {
         "name": "Khargone",
         "nameHi": "खरगोन"
      },
      {
         "name": "Mandla",
         "nameHi": "मंडला"
      },
      {
         "name": "Mandsaur",
         "nameHi": "मन्दसौर"
      },
      {
         "name": "Morena",
         "nameHi": "मुरैना"
      },
      {
         "name": "Narsinghpur",
         "nameHi": "नरसिंहपुर"
      },
      {
         "name": "Neemuch",
         "nameHi": "नीमच"
      },
      {
         "name": "Panna",
         "nameHi": "पन्ना"
      },
      {
         "name": "Raisen",
         "nameHi": "रायसेन"
      },
      {
         "name": "Rajgarh",
         "nameHi": "राजगढ़"
      },
      {
         "name": "Ratlam",
         "nameHi": "रतलाम"
      },
      {
         "name": "Rewa",
         "nameHi": "रीवा"
      },
      {
         "name": "Sagar",
         "nameHi": "सागर"
      },
      {
         "name": "Satna",
         "nameHi": "सतना"
      },
      {
         "name": "Sehore",
         "nameHi": "सीहोर"
      },
      {
         "name": "Seoni",
         "nameHi": "सिवनी"
      },
      {
         "name": "Shahdol",
         "nameHi": "शाहडोल"
      },
      {
         "name": "Shajapur",
         "nameHi": "शाजापुर"
      },
      {
         "name": "Sheopur",
         "nameHi": "श्योपुर"
      },
      {
         "name": "Shivpuri",
         "nameHi": "शिवपुरी"
      },
      {
         "name": "Sidhi",
         "nameHi": "सीधी"
      },
      {
         "name": "Singrauli",
         "nameHi": "सिंगरौली"
      },
      {
         "name": "Tikamgarh",
         "nameHi": "टीकमगढ़"
      },
      {
         "name": "Ujjain",
         "nameHi": "उज्जैन"
      },
      {
         "name": "Umaria",
         "nameHi": "उमरिया"
      },
      {
         "name": "Vidisha",
         "nameHi": "विदिशा"
      }
   ]
   },
   {
      "state": "Maharashtra",
      "stateHi": "महाराष्ट्र",
      "districts": [
         {
            "name": "Ahmednagar",
            "nameHi": "अहमदनगर"
         },
         {
            "name": "Akola",
            "nameHi": "अकोला"
         },
         {
            "name": "Amravati",
            "nameHi": "अमरावती"
         },
         {
            "name": "Aurangabad",
            "nameHi": "औरंगाबाद"
         },
         {
            "name": "Beed",
            "nameHi": "बीड"
         },
         {
            "name": "Bhandara",
            "nameHi": "भंडारा"
         },
         {
            "name": "Buldhana",
            "nameHi": "बुलढाना"
         },
         {
            "name": "Chandrapur",
            "nameHi": "चंद्रपुर"
         },
         {
            "name": "Dhule",
            "nameHi": "धुले"
         },
         {
            "name": "Gadchiroli",
            "nameHi": "गडचिरोली"
         },
         {
            "name": "Gondia",
            "nameHi": "गोंदिया"
         },
         {
            "name": "Hingoli",
            "nameHi": "हिंगोली"
         },
         {
            "name": "Jalgaon",
            "nameHi": "जलगांव"
         },
         {
            "name": "Jalna",
            "nameHi": "जलना"
         },
         {
            "name": "Kolhapur",
            "nameHi": "कोल्हापुर"
         },
         {
            "name": "Latur",
            "nameHi": "लातूर"
         },
         {
            "name": "Mumbai",
            "nameHi": "मुंबई शहर"
         },
         {
            "name": "Mumbai Suburban",
            "nameHi": "मुंबई उपनगर"
         },
         {
            "name": "Nagpur",
            "nameHi": "नागपुर"
         },
         {
            "name": "Nanded",
            "nameHi": "नांदेड़"
         },
         {
            "name": "Nandurbar",
            "nameHi": "नंदुरबार"
         },
         {
            "name": "Nashik",
            "nameHi": "नासिक"
         },
         {
            "name": "Osmanabad",
            "nameHi": "उस्मानाबाद"
         },
         {
            "name": "Parbhani",
            "nameHi": "परभनी"
         },
         {
            "name": "Pune",
            "nameHi": "पुणे"
         },
         {
            "name": "Raigad",
            "nameHi": "रायगढ़"
         },
         {
            "name": "Ratnagiri",
            "nameHi": "रत्नागिरि"
         },
         {
            "name": "Sangli",
            "nameHi": "सांगली"
         },
         {
            "name": "Satara",
            "nameHi": "सतारा"
         },
         {
            "name": "Sindhudurg",
            "nameHi": "सिंधुदुर्ग"
         },
         {
            "name": "Solapur",
            "nameHi": "सोलापुर"
         },
         {
            "name": "Thane",
            "nameHi": "थाइन"
         },
         {
            "name": "Wardha",
            "nameHi": "वर्धा"
         },
         {
            "name": "Washim",
            "nameHi": "वाशिम"
         },
         {
            "name": "Yavatmal",
            "nameHi": "यवतमाल"
         }
      ]
   },
   {
      "state": "Manipur",
      "stateHi": "मणिपुर",
      "districts": [
         {
            "name": "Bishnupur",
            "nameHi": "बिश्नुपुर"
         },
         {
            "name": "Chandel",
            "nameHi": "चंदेल"
         },
         {
            "name": "Churachandpur",
            "nameHi": "चुराचांदपुर"
         },
         {
            "name": "Imphal East",
            "nameHi": "इंफाल पूर्व"
         },
         {
            "name": "Imphal West",
            "nameHi": "इंफाल पश्चिम"
         },
         {
            "name": "Jiribam",
            "nameHi": "जिरिबाम"
         },
         {
            "name": "Kakching",
            "nameHi": "काकचिंग"
         },
         {
            "name": "Kamjong",
            "nameHi": "कमजोंग"
         },
         {
            "name": "Kangpokpi",
            "nameHi": "कांगपोक्पी"
         },
         {
            "name": "Noney",
            "nameHi": "नोने"
         },
         {
            "name": "Pherzawl",
            "nameHi": "फेरजॉल"
         },
         {
            "name": "Senapati",
            "nameHi": "सेनापति"
         },
         {
            "name": "Tamenglong",
            "nameHi": "तामेंगलांग"
         },
         {
            "name": "Tengnoupal",
            "nameHi": "टेंगनौपाल"
         },
         {
            "name": "Thoubal",
            "nameHi": "थौबल"
         },
         {
            "name": "Ukhrul",
            "nameHi": "उखरूल"
         }
      ]
   },
   {
      "state": "Meghalaya",
      "stateHi": "मेघालय",
      "districts": [
         {
            "name": "East Garo Hills",
            "nameHi": "पूर्वी गारो हिल्स"
         },
         {
            "name": "East Jaintia Hills",
            "nameHi": "पूर्वी जैंतिया हिल्स"
         },
         {
            "name": "East Khasi Hills",
            "nameHi": "पूर्वी खासी हिल्स"
         },
         {
            "name": "North Garo Hills",
            "nameHi": "उत्तर गारो हिल्स"
         },
         {
            "name": "Ri Bhoi",
            "nameHi": "री भोई"
         },
         {
            "name": "South Garo Hills",
            "nameHi": "दक्षिण गारो हिल्स"
         },
         {
            "name": "South West Garo Hills",
            "nameHi": "दक्षिण पश्चिम गारो हिल्स"
         },
         {
            "name": "South West Khasi Hills",
            "nameHi": "दक्षिण पश्चिम खासी हिल्स"
         },
         {
            "name": "West Garo Hills",
            "nameHi": "पश्चिम गारो हिल्स"
         },
         {
            "name": "West Jaintia Hills",
            "nameHi": "पश्चिम जैंतिया हिल्स"
         },
         {
            "name": "West Khasi Hills",
            "nameHi": "पश्चिम खासी हिल्स"
         }
      ]
   },
   {
      "state": "Mizoram",
      "stateHi": "मिज़ोरम",
      "districts": [
         {
            "name": "Aizawl",
            "nameHi": "ऐज़ाल"
         },
         {
            "name": "Champhai",
            "nameHi": "चम्फाई"
         },
         {
            "name": "Hnahthial",
            "nameHi": "हनथियल"
         },
         {
            "name": "Khawzawl",
            "nameHi": "खव्ज़ाल"
         },
         {
            "name": "Kolasib",
            "nameHi": "कोलासिब"
         },
         {
            "name": "Lawngtlai",
            "nameHi": "लॉनगटलाई"
         },
         {
            "name": "Lunglei",
            "nameHi": "लुंगलेई"
         },
         {
            "name": "Mamit",
            "nameHi": "मामित"
         },
         {
            "name": "Saiha",
            "nameHi": "सईहा"
         },
         {
            "name": "Saitual",
            "nameHi": "सईतुअल"
         },
         {
            "name": "Serchhip",
            "nameHi": "सेरचिप"
         }
      ]
   },
   {
      "state": "Nagaland",
      "stateHi": "नागालैंड",
      "districts": [
         {
            "name": "Dimapur",
            "nameHi": "दीमापुर"
         },
         {
            "name": "Kiphire",
            "nameHi": "किफायर"
         },
         {
            "name": "Kohima",
            "nameHi": "कोहिमा"
         },
         {
            "name": "Longleng",
            "nameHi": "लोंग्लेंग"
         },
         {
            "name": "Mokokchung",
            "nameHi": "मोकोक्चुंग"
         },
         {
            "name": "Mon",
            "nameHi": "मोन"
         },
         {
            "name": "Peren",
            "nameHi": "पेरेन"
         },
         {
            "name": "Phek",
            "nameHi": "फेक"
         },
         {
            "name": "Tuensang",
            "nameHi": "तुएंसांग"
         },
         {
            "name": "Wokha",
            "nameHi": "वोखा"
         },
         {
            "name": "Zunheboto",
            "nameHi": "जुनहेबोटो"
         }
      ]
   },
   {
      "state": "Odisha",
      "stateHi": "ओडिशा",
      "districts": [
         {
            "name": "Angul",
            "nameHi": "अंगुल"
         },
         {
            "name": "Balangir",
            "nameHi": "बलांगीर"
         },
         {
            "name": "Balasore",
            "nameHi": "बालासोर"
         },
         {
            "name": "Bargarh",
            "nameHi": "बरगढ़"
         },
         {
            "name": "Bhadrak",
            "nameHi": "भद्रक"
         },
         {
            "name": "Boudh",
            "nameHi": "बौद्ध"
         },
         {
            "name": "Cuttack",
            "nameHi": "कटक"
         },
         {
            "name": "Deogarh",
            "nameHi": "देवगढ़"
         },
         {
            "name": "Dhenkanal",
            "nameHi": "ढेंकानाल"
         },
         {
            "name": "Gajapati",
            "nameHi": "गजापति"
         },
         {
            "name": "Ganjam",
            "nameHi": "गंजम"
         },
         {
            "name": "Jagatsinghpur",
            "nameHi": "जगतसिंगपुर"
         },
         {
            "name": "Jajpur",
            "nameHi": "जाजपुर"
         },
         {
            "name": "Jharsuguda",
            "nameHi": "झारसुगुडा"
         },
         {
            "name": "Kalahandi",
            "nameHi": "कलहांडी"
         },
         {
            "name": "Kandhamal",
            "nameHi": "कंधमाल"
         },
         {
            "name": "Kendrapara",
            "nameHi": "केन्द्रपाड़ा"
         },
         {
            "name": "Kendujhar",
            "nameHi": "केन्दुझार"
         },
         {
            "name": "Khordha",
            "nameHi": "खोरधा"
         },
         {
            "name": "Koraput",
            "nameHi": "कोरापुट"
         },
         {
            "name": "Malkangiri",
            "nameHi": "मालकांगिरी"
         },
         {
            "name": "Mayurbhanj",
            "nameHi": "मयूरभंज"
         },
         {
            "name": "Nabarangpur",
            "nameHi": "नबरंगपुर"
         },
         {
            "name": "Nayagarh",
            "nameHi": "नयागढ़"
         },
         {
            "name": "Nuapada",
            "nameHi": "नुआपाड़ा"
         },
         {
            "name": "Puri",
            "nameHi": "पुरी"
         },
         {
            "name": "Rayagada",
            "nameHi": "रायगढ़"
         },
         {
            "name": "Sambalpur",
            "nameHi": "संबलपुर"
         },
         {
            "name": "Subarnapur",
            "nameHi": "सुबर्णपुर"
         },
         {
            "name": "Sundargarh",
            "nameHi": "सुंदरगढ़"
         }
      ]
   },
   {
      "state": "Puducherry (UT)",
      "stateHi": "पुदुचेरी ( UT )",
      "districts": [
         {
            "name": "Karaikal",
            "nameHi": "कराईकल"
         },
         {
            "name": "Mahe",
            "nameHi": "माहे"
         },
         {
            "name": "Puducherry",
            "nameHi": "पांडिचेरी (पुडुचेरी)"
         },
         {
            "name": "Yanam",
            "nameHi": "यानम"
         }
      ]
   },
   {
      "state": "Punjab",
      "stateHi": "पंजाब",
      "districts": [
         {
            "name": "Amritsar",
            "nameHi": "अमृतसर"
         },
         {
            "name": "Barnala",
            "nameHi": "बरनाला"
         },
         {
            "name": "Bhatinda",
            "nameHi": "भटिंडा"
         },
         {
            "name": "Faridkot",
            "nameHi": "फरीदकोट"
         },
         {
            "name": "Fatehgarh Sahib",
            "nameHi": "फतेहगढ़ साहिब"
         },
         {
            "name": "Fazilka",
            "nameHi": "फ़ाजिल्का"
         },
         {
            "name": "Ferozepur",
            "nameHi": "फिरोजपुर"
         },
         {
            "name": "Gurdaspur",
            "nameHi": "गुरदासपुर"
         },
         {
            "name": "Hoshiarpur",
            "nameHi": "होशियारपुर"
         },
         {
            "name": "Jalandhar",
            "nameHi": "जालंधर"
         },
         {
            "name": "Kapurthala",
            "nameHi": "कपूरथला"
         },
         {
            "name": "Ludhiana",
            "nameHi": "लुधियाना"
         },
         {
            "name": "Mansa",
            "nameHi": "मांसा"
         },
         {
            "name": "Moga",
            "nameHi": "मोगा"
         },
         {
            "name": "Pathankot",
            "nameHi": "पठानकोट"
         },
         {
            "name": "Patiala",
            "nameHi": "पटियाला"
         },
         {
            "name": "Sahibzada Ajit Singh Nagar",
            "nameHi": "साहिबजादा अजीत सिंघ नगर"
         },
         {
            "name": "Sangrur",
            "nameHi": "संगरूर"
         },
         {
            "name": "Tarn Taran",
            "nameHi": "तरन तारन"
         }
      ]
   },
   {
      "state": "Rajasthan",
      "stateHi": "राजस्थान",
      "districts": [
         {
            "name": "Ajmer",
            "nameHi": "अजमेर"
         },
         {
            "name": "Alwar",
            "nameHi": "अलवर"
         },
         {
            "name": "Banswara",
            "nameHi": "बांसवाड़ा"
         },
         {
            "name": "Baran",
            "nameHi": "बारां"
         },
         {
            "name": "Barmer",
            "nameHi": "बाड़मेर"
         },
         {
            "name": "Bharatpur",
            "nameHi": "भरतपुर"
         },
         {
            "name": "Bhilwara",
            "nameHi": "भीलवाड़ा"
         },
         {
            "name": "Bikaner",
            "nameHi": "बीकानेर"
         },
         {
            "name": "Bundi",
            "nameHi": "बूंदी"
         },
         {
            "name": "Chittorgarh",
            "nameHi": "चित्तौड़गढ़"
         },
         {
            "name": "Churu",
            "nameHi": "चुरू"
         },
         {
            "name": "Dausa",
            "nameHi": "दौसा"
         },
         {
            "name": "Dholpur",
            "nameHi": "धौलपुर"
         },
         {
            "name": "Dungarpur",
            "nameHi": "डूंगरपुर"
         },
         {
            "name": "Hanumangarh",
            "nameHi": "हनुमानगढ़"
         },
         {
            "name": "Jaipur",
            "nameHi": "जयपुर"
         },
         {
            "name": "Jaisalmer",
            "nameHi": "जैसलमेर"
         },
         {
            "name": "Jalore",
            "nameHi": "जालौर"
         },
         {
            "name": "Jhalawar",
            "nameHi": "झालावाड़"
         },
         {
            "name": "Jhunjhunu",
            "nameHi": "झुंझुनूं"
         },
         {
            "name": "Jodhpur",
            "nameHi": "जोधपुर"
         },
         {
            "name": "Karauli",
            "nameHi": "करौली"
         },
         {
            "name": "Kota",
            "nameHi": "कोटा"
         },
         {
            "name": "Nagaur",
            "nameHi": "नागौर"
         },
         {
            "name": "Pali",
            "nameHi": "पाली"
         },
         {
            "name": "Pratapgarh",
            "nameHi": "प्रतापगढ़"
         },
         {
            "name": "Rajsamand",
            "nameHi": "राजसमंद"
         },
         {
            "name": "Sawai Madhopur",
            "nameHi": "सवाई माधोपुर"
         },
         {
            "name": "Sikar",
            "nameHi": "सीकर"
         },
         {
            "name": "Sirohi",
            "nameHi": "सिरोही"
         },
         {
            "name": "Sri Ganganagar",
            "nameHi": "श्रीगंगानगर"
         },
         {
            "name": "Tonk",
            "nameHi": "टोंक"
         },
         {
            "name": "Udaipur",
            "nameHi": "उदयपुर"
         }
      ]
   },
   {
      "state": "Sikkim",
      "stateHi": "सिक्किम",
      "districts": [
         {
            "name": "East Sikkim",
            "nameHi": "पूर्वी सिक्किम"
         },
         {
            "name": "North Sikkim",
            "nameHi": "उत्तरी सिक्किम"
         },
         {
            "name": "South Sikkim",
            "nameHi": "दक्षिण सिक्किम"
         },
         {
            "name": "West Sikkim",
            "nameHi": "पश्चिम सिक्किम"
         }
      ]
   },   
   {
      "state": "Tamil Nadu",
      "stateHi": "तमिलनाडु",
      "districts": [
         {
            "name": "Ariyalur",
            "nameHi": "अरियालूर"
         },
         {
            "name": "Chennai",
            "nameHi": "चेंगलपट्टू"
         },
         {
            "name": "Coimbatore",
            "nameHi": "कोयंबटूर"
         },
         {
            "name": "Cuddalore",
            "nameHi": "कुड्डालोर"
         },
         {
            "name": "Dharmapuri",
            "nameHi": "धर्मपुरी"
         },
         {
            "name": "Dindigul",
            "nameHi": "डिंडीगुल"
         },
         {
            "name": "Erode",
            "nameHi": "इरोड"
         },
         {
            "name": "Kancheepuram",
            "nameHi": "कल्लाकुरिची"
         },
         {
            "name": "Kanniyakumari",
            "nameHi": "कांचीपुरम"
         },
         {
            "name": "Karur",
            "nameHi": "कन्याकूमारी"
         },
         {
            "name": "Krishnagiri",
            "nameHi": "करूर"
         },
         {
            "name": "Madurai",
            "nameHi": "कृष्णागिरी"
         },
         {
            "name": "Nagapattinam",
            "nameHi": "मदुरै"
         },
         {
            "name": "Namakkal",
            "nameHi": "नागपट्टिनम"
         },
         {
            "name": "The Nilgiris",
            "nameHi": "नमक्कल"
         },
         {
            "name": "Perambalur",
            "nameHi": "नीलगिरी"
         },
         {
            "name": "Pudukkottai",
            "nameHi": "पेरम्बलूर"
         },
         {
            "name": "Ramanathapuram",
            "nameHi": "पुदुक्कोट्टई"
         },
         {
            "name": "Salem",
            "nameHi": "रामनाथपुरम"
         },
         {
            "name": "Sivagangai",
            "nameHi": "रानीपेट"
         },
         {
            "name": "Thanjavur",
            "nameHi": "सलेम"
         },
         {
            "name": "Theni",
            "nameHi": "शिवगंगा"
         },
         {
            "name": "Thoothukudi",
            "nameHi": "तेनकासी"
         },
         {
            "name": "Tiruchirappalli",
            "nameHi": "तंजावुर"
         },
         {
            "name": "Tirunelveli",
            "nameHi": "तब मैं"
         },
         {
            "name": "Tiruppur",
            "nameHi": "थूथुकुडी (तूतीकोरिन)"
         },
         {
            "name": "Tiruvallur",
            "nameHi": "तिरुचिरापल्ली"
         },
         {
            "name": "Tiruvannamalai",
            "nameHi": "तिरुनेलवेली"
         },
         {
            "name": "Thiruvarur",
            "nameHi": "तिरुपथुर"
         },
         {
            "name": "Vellore",
            "nameHi": "तिरुपूर"
         },
         {
            "name": "Villupuram",
            "nameHi": "तिरुवल्लुर"
         },
         {
            "name": "Virudhunagar",
            "nameHi": "तिरुवन्नामलाई"
         }
      ]
   },
   {
      "state": "Telangana",
      "stateHi": "तेलंगाना",
      "districts": [
         {
            "name": "Adilabad",
            "nameHi": "आदिलाबाद"
         },
         {
            "name": "Bhadradri Kothagudem",
            "nameHi": "भद्राद्रि कोठागुडेम"
         },
         {
            "name": "Jagtial",
            "nameHi": "जगती याल"
         },
         {
            "name": "Jangaon",
            "nameHi": "जनगांव"
         },
         {
            "name": "Jayashankar Bhupalpally",
            "nameHi": "जयशंकर भूपालपल्ली"
         },
         {
            "name": "Jogulamba Gadwal",
            "nameHi": "जोगुलाम्बा गडवाल"
         },
         {
            "name": "Kamareddy",
            "nameHi": "कामारेड्डी"
         },
         {
            "name": "Karimnagar",
            "nameHi": "करीमनगर"
         },
         {
            "name": "Khammam",
            "nameHi": "खम्मम"
         },
         {
            "name": "Kumurambheem Asifabad",
            "nameHi": "कोमाराम भीम आसिफाबाद"
         },
         {
            "name": "Mahabubabad",
            "nameHi": "महबुबाबाद"
         },
         {
            "name": "Mahabubnagar",
            "nameHi": "महबूबनगर"
         },
         {
            "name": "Mancherial",
            "nameHi": "मनचेरिअल"
         },
         {
            "name": "Medak",
            "nameHi": "मेडक"
         },
         {
            "name": "Medchal Malkajgiri",
            "nameHi": "मेडचल-मल्काजगिरी"
         },
         {
            "name": "Nagarkurnool",
            "nameHi": "मुलुगु"
         },
         {
            "name": "Nalgonda",
            "nameHi": "नगरकुरनूल"
         },
         {
            "name": "Nirmal",
            "nameHi": "नलगोंडा"
         },
         {
            "name": "Nizamabad",
            "nameHi": "निर्मल"
         },
         {
            "name": "Peddapalle",
            "nameHi": "निजामाबाद"
         },
         {
            "name": "Rajanna Sircilla",
            "nameHi": "पेद्दापल्ली"
         },
         {
            "name": "Rangareddy",
            "nameHi": "राजन्ना सिरसिला"
         },
         {
            "name": "Sangareddy",
            "nameHi": "रंगारेड्डी"
         },
         {
            "name": "Siddipet",
            "nameHi": "संगारेड्डी"
         },
         {
            "name": "Suryapet",
            "nameHi": "सिद्दीपेट"
         },
         {
            "name": "Vikarabad",
            "nameHi": "सूर्यापेट"
         },
         {
            "name": "Wanaparthy",
            "nameHi": "विकाराबाद"
         },
         {
            "name": "Warangal Rural",
            "nameHi": "वानापर्थी"
         },
         {
            "name": "Warangal Urban",
            "nameHi": "वारंगल ग्रामीण"
         },
         {
            "name": "Yadadri Bhuvanagiri",
            "nameHi": "वारंगल शहरी"
         }
      ]
   },
   {
      "state": "Tripura",
      "stateHi": "त्रिपुरा",
      "districts": [
         {
            "name": "Dhalai",
            "nameHi": "धलाई"
         },
         {
            "name": "Gomati",
            "nameHi": "गोमती"
         },
         {
            "name": "Khowai",
            "nameHi": "खोवाई"
         },
         {
            "name": "North Tripura",
            "nameHi": "उत्तरी त्रिपुरा"
         },
         {
            "name": "Sipahijala",
            "nameHi": "सिपाहीजला"
         },
         {
            "name": "South Tripura",
            "nameHi": "दक्षिण त्रिपुरा"
         },
         {
            "name": "Unakoti",
            "nameHi": "ऊनाकोटि"
         },
         {
            "name": "West Tripura",
            "nameHi": "पश्चिम त्रिपुरा"
         }
      ]
   },
   {
      "state": "Uttarakhand",
      "stateHi": "उत्तराखंड",
      "districts": [
         {
            "name": "Almora",
            "nameHi": "अल्मोडा"
         },
         {
            "name": "Bageshwar",
            "nameHi": "बागेश्वर"
         },
         {
            "name": "Chamoli",
            "nameHi": "चमोली"
         },
         {
            "name": "Champawat",
            "nameHi": "चम्पावत"
         },
         {
            "name": "Dehradun",
            "nameHi": "देहरादून"
         },
         {
            "name": "Haridwar",
            "nameHi": "हरिद्वार"
         },
         {
            "name": "Nainital",
            "nameHi": "नैनीताल"
         },
         {
            "name": "Pauri Garhwal",
            "nameHi": "पौडी गढ़वाल"
         },
         {
            "name": "Pithoragarh",
            "nameHi": "पिथोरागढ़"
         },
         {
            "name": "Rudraprayag",
            "nameHi": "रुद्रप्रयाग"
         },
         {
            "name": "Tehri Garhwal",
            "nameHi": "टेहरी गढ़वाल"
         },
         {
            "name": "Udham Singh Nagar",
            "nameHi": "उधम सिंह नगर"
         },
         {
            "name": "Uttarkashi",
            "nameHi": "उत्तरकाशी"
         }
      ]
   },
   {
      "state": "Uttar Pradesh",
      "stateHi": "उत्तर प्रदेश",
      "districts": [
         {
            "name": "Agra",
            "nameHi": "आगरा"
         },
         {
            "name": "Aligarh",
            "nameHi": "अलीगढ"
         },
         {
            "name": "Allahabad",
            "nameHi": "इलाहाबाद (प्रयागराज)"
         },
         {
            "name": "Ambedkar Nagar",
            "nameHi": "अंबेडकरनगर"
         },
         {
            "name": "Amethi",
            "nameHi": "अमेठी (छत्रपति साहूजी महराज नगर)"
         },
         {
            "name": "Amroha",
            "nameHi": "अमरोहा (जे.पी.नगर)"
         },
         {
            "name": "Auraiya",
            "nameHi": "औरैया"
         },
         {
            "name": "Azamgarh",
            "nameHi": "आजमगढ़"
         },
         {
            "name": "Baghpat",
            "nameHi": "बागपत"
         },
         {
            "name": "Bahraich",
            "nameHi": "बहराईच"
         },
         {
            "name": "Ballia",
            "nameHi": "बलिया"
         },
         {
            "name": "Balrampur",
            "nameHi": "बलरामपुर"
         },
         {
            "name": "Banda",
            "nameHi": "बाँदा"
         },
         {
            "name": "Barabanki",
            "nameHi": "बाराबंकी"
         },
         {
            "name": "Bareilly",
            "nameHi": "बरेली"
         },
         {
            "name": "Basti",
            "nameHi": "बस्ती"
         },
         {
            "name": "Bijnor",
            "nameHi": "बिजनौर"
         },
         {
            "name": "Budaun",
            "nameHi": "शाहजहांपुर"
         },
         {
            "name": "Bulandshahar",
            "nameHi": "बुलन्दशहर"
         },
         {
            "name": "Chandauli",
            "nameHi": "चंदौली"
         },
         {
            "name": "Chitrakoot",
            "nameHi": "चित्रकूट"
         },
         {
            "name": "Deoria",
            "nameHi": "देवरिया"
         },
         {
            "name": "Etah",
            "nameHi": "एटा"
         },
         {
            "name": "Etawah",
            "nameHi": "इटावा"
         },
         {
            "name": "Faizabad",
            "nameHi": "फैजाबाद"
         },
         {
            "name": "Farrukhabad",
            "nameHi": "फर्रुखाबाद"
         },
         {
            "name": "Fatehpur",
            "nameHi": "फ़तेहपुर"
         },
         {
            "name": "Firozabad",
            "nameHi": "फिरोजाबाद"
         },
         {
            "name": "Gautam Buddha Nagar",
            "nameHi": "गौतमबुद्धनगर"
         },
         {
            "name": "Ghaziabad",
            "nameHi": "गाज़ियाबाद"
         },
         {
            "name": "Ghazipur",
            "nameHi": "गाजीपुर"
         },
         {
            "name": "Gonda",
            "nameHi": "गोंडा"
         },
         {
            "name": "Gorakhpur",
            "nameHi": "गोरखपुर"
         },
         {
            "name": "Hamirpur",
            "nameHi": "हमीरपुर"
         },
         {
            "name": "Hardoi",
            "nameHi": "हरदोई"
         },
         {
            "name": "Hathras",
            "nameHi": "हाथरस"
         },
         {
            "name": "Jalaun",
            "nameHi": "जालौन"
         },
         {
            "name": "Jaunpur",
            "nameHi": "जौनपुर"
         },
         {
            "name": "Jhansi",
            "nameHi": "झांसी"
         },
         {
            "name": "Kannauj",
            "nameHi": "कन्नौज"
         },
         {
            "name": "Kanpur dehat",
            "nameHi": "कानपुर देहात (रमाबाई नगर)"
         },
         {
            "name": "Kanpur Nagar",
            "nameHi": "कानपुर नगर"
         },
         {
            "name": "Kanshiram Nagar",
            "nameHi": "कासगंज (कांशीराम नगर)"
         },
         {
            "name": "Kaushambi",
            "nameHi": "कौशांबी"
         },
         {
            "name": "Lakhimpur Kheri",
            "nameHi": "खीरी (लखीमपुर खीरी)"
         },
         {
            "name": "Lalitpur",
            "nameHi": "ललितपुर"
         },
         {
            "name": "Lucknow",
            "nameHi": "लखनऊ"
         },
         {
            "name": "Maharajganj",
            "nameHi": "महाराजगंज"
         },
         {
            "name": "Mahoba",
            "nameHi": "महोबा"
         },
         {
            "name": "Mainpuri",
            "nameHi": "मैनपुरी"
         },
         {
            "name": "Mathura",
            "nameHi": "मथुरा"
         },
         {
            "name": "Mau",
            "nameHi": "मऊ"
         },
         {
            "name": "Meerut",
            "nameHi": "मेरठ"
         },
         {
            "name": "Mirzapur",
            "nameHi": "मिर्जापुर"
         },
         {
            "name": "Moradabad",
            "nameHi": "मुरादाबाद"
         },
         {
            "name": "Muzaffar Nagar",
            "nameHi": "मुजफ्फरनगर"
         },
         {
            "name": "Pilibhit",
            "nameHi": "पीलीभीत"
         },
         {
            "name": "Pratapgarh",
            "nameHi": "प्रतापगढ़"
         },
         {
            "name": "Raebareli",
            "nameHi": "रायबरेली"
         },
         {
            "name": "Rampur",
            "nameHi": "रामपुर"
         },
         {
            "name": "Saharanpur",
            "nameHi": "सहारनपुर"
         },
         {
            "name": "Sambhal",
            "nameHi": "संभल (भीम नगर)"
         },
         {
            "name": "Sant Kabir Nagar",
            "nameHi": "संतकबीरनगर"
         },
         {
            "name": "Shahjahanpur",
            "nameHi": "शाहजहांपुर"
         },
         {
            "name": "Shravasti",
            "nameHi": "श्रावस्ती"
         },
         {
            "name": "Siddharth Nagar",
            "nameHi": "सिद्धार्थनगर"
         },
         {
            "name": "Sitapur",
            "nameHi": "सीतापुर"
         },
         {
            "name": "Sonbhadra",
            "nameHi": "सोनभद्र"
         },
         {
            "name": "Sultanpur",
            "nameHi": "सुल्तानपुर"
         },
         {
            "name": "Unnao",
            "nameHi": "उन्नाव"
         },
         {
            "name": "Varanasi",
            "nameHi": "वाराणसी"
         }
      ]
   },   
   {
      "state": "West Bengal",
      "stateHi": "पश्चिम बंगाल",
      "districts": [
         {
            "name": "Alipurduar",
            "nameHi": "अलीपुरद्वार"
         },
         {
            "name": "Bankura",
            "nameHi": "बांकुड़ा"
         },
         {
            "name": "Birbhum",
            "nameHi": "बीरभूम"
         },
         {
            "name": "Burdwan",
            "nameHi": "बर्धमान"
         },
         {
            "name": "Cooch Bihar",
            "nameHi": "कूचबिहार"
         },
         {
            "name": "Dakshin Dinajpur",
            "nameHi": "दक्षिण दिनाजपुर"
         },
         {
            "name": "Darjeeling",
            "nameHi": "दार्जिलिंग"
         },
         {
            "name": "Hooghly",
            "nameHi": "हुगली"
         },
         {
            "name": "Howrah",
            "nameHi": "हावड़ा"
         },
         {
            "name": "Jalpaiguri",
            "nameHi": "जलपाईगुड़ी"
         },
         {
            "name": "Kolkatta",
            "nameHi": "कोलकाता"
         },
         {
            "name": "Malda",
            "nameHi": "मालदा"
         },
         {
            "name": "Murshidabad",
            "nameHi": "मुर्शिदाबाद"
         },
         {
            "name": "Nadia",
            "nameHi": "नादिया"
         },
         {
            "name": "North 24 Parganas",
            "nameHi": "उत्तर 24 परगना"
         },
         {
            "name": "Paschim Medinipur",
            "nameHi": "पश्चिम मेदिनीपुर"
         },
         {
            "name": "Purba Medinipur",
            "nameHi": "पूर्व मेदिनीपुर"
         },
         {
            "name": "Purulia",
            "nameHi": "पुरुलिया"
         },
         {
            "name": "South 24 Parganas",
            "nameHi": "दक्षिण 24 परगना"
         },
         {
            "name": "Uttar Dinajpur",
            "nameHi": "उत्तर दिनाजपुर"
         }
      ]
   }   
]